{
    "links": {
        "self": "http://www.neowsapp.com/rest/v1/neo/54054329?api_key=iIulBulltgU6a56xZRHN4H3l9WmuAYTsLGpBGhQ2"
    },
    "id": "54054329",
    "neo_reference_id": "54054329",
    "name": "(2020 RX6)",
    "designation": "2020 RX6",
    "nasa_jpl_url": "http://ssd.jpl.nasa.gov/sbdb.cgi?sstr=54054329",
    "absolute_magnitude_h": 25.411,
    "estimated_diameter": {
        "kilometers": {
            "estimated_diameter_min": 0.0219965706,
            "estimated_diameter_max": 0.0491858271
        },
        "meters": {
            "estimated_diameter_min": 21.9965705835,
            "estimated_diameter_max": 49.1858270967
        },
        "miles": {
            "estimated_diameter_min": 0.0136680311,
            "estimated_diameter_max": 0.0305626466
        },
        "feet": {
            "estimated_diameter_min": 72.1672286333,
            "estimated_diameter_max": 161.3708289718
        }
    },
    "is_potentially_hazardous_asteroid": false,
    "close_approach_data": [
        {
            "close_approach_date": "2020-09-10",
            "close_approach_date_full": "2020-Sep-10 17:39",
            "epoch_date_close_approach": 1599759540000,
            "relative_velocity": {
                "kilometers_per_second": "9.5935153822",
                "kilometers_per_hour": "34536.6553760495",
                "miles_per_hour": "21459.7345585236"
            },
            "miss_distance": {
                "astronomical": "0.0501802792",
                "lunar": "19.5201286088",
                "kilometers": "7506862.884325304",
                "miles": "4664548.2983410352"
            },
            "orbiting_body": "Earth"
        }
    ],
    "orbital_data": {
        "orbit_id": "8",
        "orbit_determination_date": "2020-11-23 08:08:03",
        "first_observation_date": "2020-09-14",
        "last_observation_date": "2020-09-26",
        "data_arc_in_days": 12,
        "observations_used": 35,
        "orbit_uncertainty": "8",
        "minimum_orbit_intersection": ".0343785",
        "jupiter_tisserand_invariant": "3.510",
        "epoch_osculation": "2459109.5",
        "eccentricity": ".523937772896262",
        "semi_major_axis": "2.1429306449613",
        "inclination": "8.182310606830315",
        "ascending_node_longitude": "350.41095959",
        "orbital_period": "1145.804702060052",
        "perihelion_distance": "1.020168335369126",
        "perihelion_argument": "334.7454562113815",
        "aphelion_distance": "3.265692954553473",
        "perihelion_time": "2459084.971919247449",
        "mean_anomaly": "7.706469571160454",
        "mean_motion": ".3141896689311477",
        "equinox": "J2000",
        "orbit_class": {
            "orbit_class_type": "AMO",
            "orbit_class_description": "Near-Earth asteroid orbits similar to that of 1221 Amor",
            "orbit_class_range": "1.017 AU < q (perihelion) < 1.3 AU"
        }
    },
    "is_sentry_object": false
}